start=new Date('2021-09-24T00:00:00.000Z').valueOf();
sats=[{"TIME_SYSTEM":"UTC","MEAN_ELEMENT_THEORY":"SGP4","TLE_LINE1":"1 44951U 20001AP  21266.86161554  .00003392  00000-0  23789-3 0  9998","ECCENTRICITY":"0.00032250","SITE":"AFETR","ARG_OF_PERICENTER":"97.0488","OBJECT_NAME":"STARLINK-1126","TLE_LINE2":"2 44951  53.0032  71.4468 0003225  97.0488 263.0868 15.07749226 96085","SEMIMAJOR_AXIS":"6921.216","MEAN_MOTION":"15.07749226","CENTER_NAME":"EARTH","LAUNCH_DATE":"2020-01-07","PERIAPSIS":"540.849","CLASSIFICATION_TYPE":"U","EPOCH":"2021-09-23T20:40:43.582656","FILE":"3125337","MEAN_MOTION_DDOT":"0.0000000000000","OBJECT_ID":"2020-001AP","GP_ID":"185347756","RCS_SIZE":"LARGE","MEAN_MOTION_DOT":"0.00003392","REV_AT_EPOCH":"9608","OBJECT_TYPE":"PAYLOAD","INCLINATION":"53.0032","MEAN_ANOMALY":"263.0868","RA_OF_ASC_NODE":"71.4468","APOAPSIS":"545.314","BSTAR":"0.00023789000000","EPHEMERIS_TYPE":"0","COUNTRY_CODE":"US","ELEMENT_SET_NO":"999","DECAY_DATE":null,"REF_FRAME":"TEME","NORAD_CAT_ID":"44951","PERIOD":"95.507"},{"OBJECT_TYPE":"PAYLOAD","INCLINATION":"53.0546","REV_AT_EPOCH":"9477","RCS_SIZE":"LARGE","MEAN_MOTION_DOT":"0.00001165","OBJECT_ID":"2020-001AQ","MEAN_MOTION_DDOT":"0.0000000000000","GP_ID":"185348001","PERIOD":"95.592","COUNTRY_CODE":"US","ELEMENT_SET_NO":"999","DECAY_DATE":null,"REF_FRAME":"TEME","NORAD_CAT_ID":"44952","APOAPSIS":"548.686","BSTAR":"0.00009709500000","EPHEMERIS_TYPE":"0","MEAN_ANOMALY":"263.0701","RA_OF_ASC_NODE":"74.2683","OBJECT_NAME":"STARLINK-1117","ARG_OF_PERICENTER":"97.0531","TLE_LINE2":"2 44952  53.0546  74.2683 0002144  97.0531 263.0701 15.06404023 94776","ECCENTRICITY":"0.00021440","SITE":"AFETR","TLE_LINE1":"1 44952U 20001AQ  21266.85224869  .00001165  00000-0  97095-4 0  9995","TIME_SYSTEM":"UTC","MEAN_ELEMENT_THEORY":"SGP4","CLASSIFICATION_TYPE":"U","EPOCH":"2021-09-23T20:27:14.286816","FILE":"3125337","CENTER_NAME":"EARTH","PERIAPSIS":"545.716","LAUNCH_DATE":"2020-01-07","SEMIMAJOR_AXIS":"6925.336","MEAN_MOTION":"15.06404023"},{"PERIOD":"95.592","REF_FRAME":"TEME","NORAD_CAT_ID":"44953","COUNTRY_CODE":"US","ELEMENT_SET_NO":"999","DECAY_DATE":null,"BSTAR":"0.00009205100000","EPHEMERIS_TYPE":"0","APOAPSIS":"548.477","RA_OF_ASC_NODE":"74.2359","MEAN_ANOMALY":"264.6280","INCLINATION":"53.0552","OBJECT_TYPE":"PAYLOAD","REV_AT_EPOCH":"9606","RCS_SIZE":"LARGE","MEAN_MOTION_DOT":"0.00001090","GP_ID":"185348257","MEAN_MOTION_DDOT":"0.0000000000000","OBJECT_ID":"2020-001AR","FILE":"3125337","CLASSIFICATION_TYPE":"U","EPOCH":"2021-09-23T20:52:25.079808","LAUNCH_DATE":"2020-01-07","PERIAPSIS":"545.939","CENTER_NAME":"EARTH","MEAN_MOTION":"15.06401796","SEMIMAJOR_AXIS":"6925.343","TLE_LINE2":"2 44953  53.0552  74.2359 0001832  95.4918 264.6280 15.06401796 96065","OBJECT_NAME":"STARLINK-1124","ARG_OF_PERICENTER":"95.4918","SITE":"AFETR","ECCENTRICITY":"0.00018320","TLE_LINE1":"1 44953U 20001AR  21266.86973472  .00001090  00000-0  92051-4 0  9992","TIME_SYSTEM":"UTC","MEAN_ELEMENT_THEORY":"SGP4"},{"PERIOD":"95.593","ELEMENT_SET_NO":"999","DECAY_DATE":null,"COUNTRY_CODE":"US","NORAD_CAT_ID":"44954","REF_FRAME":"TEME","APOAPSIS":"548.227","EPHEMERIS_TYPE":"0","BSTAR":"0.00023063000000","MEAN_ANOMALY":"264.1899","RA_OF_ASC_NODE":"54.4309","OBJECT_TYPE":"PAYLOAD","INCLINATION":"53.0562","REV_AT_EPOCH":"9499","MEAN_MOTION_DOT":"0.00003155","RCS_SIZE":"LARGE","MEAN_MOTION_DDOT":"0.0000000000000","OBJECT_ID":"2020-001AS","GP_ID":"185347509","EPOCH":"2021-09-23T19:36:49.453056","CLASSIFICATION_TYPE":"U","FILE":"3125337","CENTER_NAME":"EARTH","PERIAPSIS":"546.235","LAUNCH_DATE":"2020-01-07","SEMIMAJOR_AXIS":"6925.366","MEAN_MOTION":"15.06394214","OBJECT_NAME":"STARLINK-1066","ARG_OF_PERICENTER":"95.9254","TLE_LINE2":"2 44954  53.0562  54.4309 0001438  95.9254 264.1899 15.06394214 94999","ECCENTRICITY":"0.00014380","SITE":"AFETR","TLE_LINE1":"1 44954U 20001AS  21266.81723904  .00003155  00000-0  23063-3 0  9991","TIME_SYSTEM":"UTC","MEAN_ELEMENT_THEORY":"SGP4"},{"COUNTRY_CODE":"US","ELEMENT_SET_NO":"999","DECAY_DATE":null,"REF_FRAME":"TEME","NORAD_CAT_ID":"44955","PERIOD":"95.592","MEAN_ANOMALY":"269.8472","RA_OF_ASC_NODE":"54.3985","APOAPSIS":"548.453","BSTAR":"0.00013568000000","EPHEMERIS_TYPE":"0","REV_AT_EPOCH":"9499","OBJECT_TYPE":"PAYLOAD","INCLINATION":"53.0557","OBJECT_ID":"2020-001AT","MEAN_MOTION_DDOT":"0.0000000000000","GP_ID":"185347257","RCS_SIZE":"LARGE","MEAN_MOTION_DOT":"0.00001740","CLASSIFICATION_TYPE":"U","EPOCH":"2021-09-23T19:47:26.342880","FILE":"3125337","SEMIMAJOR_AXIS":"6925.342","MEAN_MOTION":"15.06401995","CENTER_NAME":"EARTH","LAUNCH_DATE":"2020-01-07","PERIAPSIS":"545.962","ECCENTRICITY":"0.00017990","SITE":"AFETR","OBJECT_NAME":"STARLINK-1069","ARG_OF_PERICENTER":"90.2723","TLE_LINE2":"2 44955  53.0557  54.3985 0001799  90.2723 269.8472 15.06401995 94996","TIME_SYSTEM":"UTC","MEAN_ELEMENT_THEORY":"SGP4","TLE_LINE1":"1 44955U 20001AT  21266.82461045  .00001740  00000-0  13568-3 0  9995"},{"MEAN_MOTION":"15.06406287","SEMIMAJOR_AXIS":"6925.329","LAUNCH_DATE":"2020-01-07","PERIAPSIS":"546.218","CENTER_NAME":"EARTH","FILE":"3125337","CLASSIFICATION_TYPE":"U","EPOCH":"2021-09-23T19:42:06.893568","TIME_SYSTEM":"UTC","MEAN_ELEMENT_THEORY":"SGP4","TLE_LINE1":"1 44956U 20001AU  21266.82091312  .00001531  00000-0  12160-3 0  9997","SITE":"AFETR","ECCENTRICITY":"0.00014100","TLE_LINE2":"2 44956  53.0551  54.4152 0001410 104.6969 255.4176 15.06406287 95059","OBJECT_NAME":"STARLINK-1070","ARG_OF_PERICENTER":"104.6969","RA_OF_ASC_NODE":"54.4152","MEAN_ANOMALY":"255.4176","BSTAR":"0.00012160000000","EPHEMERIS_TYPE":"0","APOAPSIS":"548.171","REF_FRAME":"TEME","NORAD_CAT_ID":"44956","COUNTRY_CODE":"US","ELEMENT_SET_NO":"999","DECAY_DATE":null,"PERIOD":"95.592","GP_ID":"185348501","MEAN_MOTION_DDOT":"0.0000000000000","OBJECT_ID":"2020-001AU","RCS_SIZE":"LARGE","MEAN_MOTION_DOT":"0.00001531","REV_AT_EPOCH":"9505","INCLINATION":"53.0551","OBJECT_TYPE":"PAYLOAD"},{"TIME_SYSTEM":"UTC","MEAN_ELEMENT_THEORY":"SGP4","TLE_LINE1":"1 44957U 20001AV  21266.78037501  .00001280  00000-0  10486-3 0  9993","ECCENTRICITY":"0.00019720","SITE":"AFETR","OBJECT_NAME":"STARLINK-1074","ARG_OF_PERICENTER":"91.8960","TLE_LINE2":"2 44957  53.0554  54.5958 0001972  91.8960 268.2255 15.06393410 95041","SEMIMAJOR_AXIS":"6925.369","MEAN_MOTION":"15.06393410","CENTER_NAME":"EARTH","LAUNCH_DATE":"2020-01-07","PERIAPSIS":"545.868","CLASSIFICATION_TYPE":"U","EPOCH":"2021-09-23T18:43:44.400864","FILE":"3125337","MEAN_MOTION_DDOT":"0.0000000000000","OBJECT_ID":"2020-001AV","GP_ID":"185348757","RCS_SIZE":"LARGE","MEAN_MOTION_DOT":"0.00001280","REV_AT_EPOCH":"9504","OBJECT_TYPE":"PAYLOAD","INCLINATION":"53.0554","MEAN_ANOMALY":"268.2255","RA_OF_ASC_NODE":"54.5958","APOAPSIS":"548.599","BSTAR":"0.00010486000000","EPHEMERIS_TYPE":"0","COUNTRY_CODE":"US","ELEMENT_SET_NO":"999","DECAY_DATE":null,"REF_FRAME":"TEME","NORAD_CAT_ID":"44957","PERIOD":"95.593"},{"TIME_SYSTEM":"UTC","MEAN_ELEMENT_THEORY":"SGP4","TLE_LINE1":"1 44959U 20001AX  21266.79512445  .00001732  00000-0  13510-3 0  9994","ECCENTRICITY":"0.00018650","SITE":"AFETR","OBJECT_NAME":"STARLINK-1076","ARG_OF_PERICENTER":"94.5103","TLE_LINE2":"2 44959  53.0561  54.5283 0001865  94.5103 265.6099 15.06408406 95041","SEMIMAJOR_AXIS":"6925.323","MEAN_MOTION":"15.06408406","CENTER_NAME":"EARTH","LAUNCH_DATE":"2020-01-07","PERIAPSIS":"545.896","EPOCH":"2021-09-23T19:04:58.752480","CLASSIFICATION_TYPE":"U","FILE":"3125337","MEAN_MOTION_DDOT":"0.0000000000000","OBJECT_ID":"2020-001AX","GP_ID":"185347010","MEAN_MOTION_DOT":"0.00001732","RCS_SIZE":"LARGE","REV_AT_EPOCH":"9504","OBJECT_TYPE":"PAYLOAD","INCLINATION":"53.0561","MEAN_ANOMALY":"265.6099","RA_OF_ASC_NODE":"54.5283","APOAPSIS":"548.479","EPHEMERIS_TYPE":"0","BSTAR":"0.00013510000000","DECAY_DATE":null,"ELEMENT_SET_NO":"999","COUNTRY_CODE":"US","NORAD_CAT_ID":"44959","REF_FRAME":"TEME","PERIOD":"95.592"},{"TLE_LINE2":"2 44961  53.0557  54.4910 0001468  89.4216 270.6942 15.06406376 95050","ARG_OF_PERICENTER":"89.4216","OBJECT_NAME":"STARLINK-1080","SITE":"AFETR","ECCENTRICITY":"0.00014680","TLE_LINE1":"1 44961U 20001AZ  21266.80248210  .00001497  00000-0  11933-3 0  9990","TIME_SYSTEM":"UTC","MEAN_ELEMENT_THEORY":"SGP4","FILE":"3125337","CLASSIFICATION_TYPE":"U","EPOCH":"2021-09-23T19:15:34.453440","LAUNCH_DATE":"2020-01-07","PERIAPSIS":"546.177","CENTER_NAME":"EARTH","MEAN_MOTION":"15.06406376","SEMIMAJOR_AXIS":"6925.329","INCLINATION":"53.0557","OBJECT_TYPE":"PAYLOAD","REV_AT_EPOCH":"9505","RCS_SIZE":"LARGE","MEAN_MOTION_DOT":"0.00001497","GP_ID":"185347757","MEAN_MOTION_DDOT":"0.0000000000000","OBJECT_ID":"2020-001AZ","PERIOD":"95.592","REF_FRAME":"TEME","NORAD_CAT_ID":"44961","COUNTRY_CODE":"US","ELEMENT_SET_NO":"999","DECAY_DATE":null,"BSTAR":"0.00011933000000","EPHEMERIS_TYPE":"0","APOAPSIS":"548.211","RA_OF_ASC_NODE":"54.4910","MEAN_ANOMALY":"270.6942"},{"MEAN_ANOMALY":"357.4847","RA_OF_ASC_NODE":"359.3642","APOAPSIS":"297.272","BSTAR":"0.00249060000000","EPHEMERIS_TYPE":"0","COUNTRY_CODE":"US","ELEMENT_SET_NO":"999","DECAY_DATE":null,"REF_FRAME":"TEME","NORAD_CAT_ID":"44962","PERIOD":"90.286","OBJECT_ID":"2020-001BA","MEAN_MOTION_DDOT":"0.0004501200000","GP_ID":"185293932","RCS_SIZE":"LARGE","MEAN_MOTION_DOT":"0.00988182","REV_AT_EPOCH":"9579","OBJECT_TYPE":"PAYLOAD","INCLINATION":"53.0548","SEMIMAJOR_AXIS":"6666.650","MEAN_MOTION":"15.94928781","CENTER_NAME":"EARTH","PERIAPSIS":"279.758","LAUNCH_DATE":"2020-01-07","CLASSIFICATION_TYPE":"U","EPOCH":"2021-09-23T14:16:10.024608","FILE":"3124840","TIME_SYSTEM":"UTC","MEAN_ELEMENT_THEORY":"SGP4","TLE_LINE1":"1 44962U 20001BA  21266.59456047  .00988182  45012-3  24906-2 0  9999","ECCENTRICITY":"0.00131360","SITE":"AFETR","OBJECT_NAME":"STARLINK-1081","ARG_OF_PERICENTER":"2.6260","TLE_LINE2":"2 44962  53.0548 359.3642 0013136   2.6260 357.4847 15.94928781 95796"}];
